start=new Date('2022-03-06T00:00:00.000Z').valueOf();
sats=[{"ECCENTRICITY":"0.00019810","OBJECT_ID":"2020-088AF","BSTAR":"0.00017101000000","REV_AT_EPOCH":"7106","MEAN_ELEMENT_THEORY":"SGP4","TIME_SYSTEM":"UTC","CENTER_NAME":"EARTH","OBJECT_TYPE":"PAYLOAD","PERIOD":"95.591","SEMIMAJOR_AXIS":"6925.309","SITE":"AFETR","TLE_LINE1":"1 47151U 20088AF  22064.94813241  .00002267  00000-0  17101-3 0  9992","ELEMENT_SET_NO":"999","DECAY_DATE":null,"ARG_OF_PERICENTER":"62.6788","MEAN_MOTION":"15.06412879","CLASSIFICATION_TYPE":"U","COUNTRY_CODE":"US","GP_ID":"198018073","APOAPSIS":"548.546","RCS_SIZE":"LARGE","OBJECT_NAME":"STARLINK-1864","MEAN_MOTION_DOT":"0.00002267","PERIAPSIS":"545.802","MEAN_MOTION_DDOT":"0.0000000000000","REF_FRAME":"TEME","FILE":"3346512","LAUNCH_DATE":"2020-11-25","NORAD_CAT_ID":"47151","INCLINATION":"53.0564","MEAN_ANOMALY":"297.4402","EPOCH":"2022-03-05T22:45:18.640224","EPHEMERIS_TYPE":"0","TLE_LINE2":"2 47151  53.0564  37.1040 0001981  62.6788 297.4402 15.06412879 71069","RA_OF_ASC_NODE":"37.1040"},{"MEAN_MOTION_DDOT":"0.0000000000000","LAUNCH_DATE":"2020-11-25","NORAD_CAT_ID":"47152","REF_FRAME":"TEME","FILE":"3346512","MEAN_ANOMALY":"299.8635","INCLINATION":"53.0554","RA_OF_ASC_NODE":"37.1771","TLE_LINE2":"2 47152  53.0554  37.1771 0001726  60.2525 299.8635 15.06416065 71065","EPHEMERIS_TYPE":"0","EPOCH":"2022-03-05T22:24:05.161248","MEAN_MOTION":"15.06416065","ARG_OF_PERICENTER":"60.2525","DECAY_DATE":null,"COUNTRY_CODE":"US","GP_ID":"198018324","APOAPSIS":"548.360","CLASSIFICATION_TYPE":"U","MEAN_MOTION_DOT":"0.00005382","RCS_SIZE":"LARGE","OBJECT_NAME":"STARLINK-1866","PERIAPSIS":"545.969","PERIOD":"95.591","OBJECT_TYPE":"PAYLOAD","SEMIMAJOR_AXIS":"6925.299","SITE":"AFETR","TLE_LINE1":"1 47152U 20088AG  22064.93339307  .00005382  00000-0  37980-3 0  9996","ELEMENT_SET_NO":"999","OBJECT_ID":"2020-088AG","ECCENTRICITY":"0.00017260","TIME_SYSTEM":"UTC","CENTER_NAME":"EARTH","MEAN_ELEMENT_THEORY":"SGP4","BSTAR":"0.00037980000000","REV_AT_EPOCH":"7106"},{"BSTAR":"0.00005958000000","MEAN_ELEMENT_THEORY":"SGP4","REV_AT_EPOCH":"7095","CENTER_NAME":"EARTH","TIME_SYSTEM":"UTC","ECCENTRICITY":"0.00016170","OBJECT_ID":"2020-088AH","ELEMENT_SET_NO":"999","TLE_LINE1":"1 47153U 20088AH  22064.64264589  .00000606  00000-0  59580-4 0  9999","SITE":"AFETR","SEMIMAJOR_AXIS":"6925.342","OBJECT_TYPE":"PAYLOAD","PERIOD":"95.592","PERIAPSIS":"546.087","MEAN_MOTION_DOT":"0.00000606","RCS_SIZE":"LARGE","OBJECT_NAME":"STARLINK-1867","CLASSIFICATION_TYPE":"U","GP_ID":"198017572","APOAPSIS":"548.327","COUNTRY_CODE":"US","DECAY_DATE":null,"MEAN_MOTION":"15.06402177","ARG_OF_PERICENTER":"57.1065","EPOCH":"2022-03-05T15:25:24.604896","EPHEMERIS_TYPE":"0","TLE_LINE2":"2 47153  53.0552  43.4704 0001617  57.1065 303.0079 15.06402177 70959","RA_OF_ASC_NODE":"43.4704","MEAN_ANOMALY":"303.0079","INCLINATION":"53.0552","FILE":"3346512","REF_FRAME":"TEME","LAUNCH_DATE":"2020-11-25","NORAD_CAT_ID":"47153","MEAN_MOTION_DDOT":"0.0000000000000"},{"SEMIMAJOR_AXIS":"6925.327","SITE":"AFETR","PERIOD":"95.592","OBJECT_TYPE":"PAYLOAD","ELEMENT_SET_NO":"999","TLE_LINE1":"1 47154U 20088AJ  22064.30770427  .00000612  00000-0  59962-4 0  9997","ECCENTRICITY":"0.00017250","OBJECT_ID":"2020-088AJ","TIME_SYSTEM":"UTC","CENTER_NAME":"EARTH","BSTAR":"0.00005996200000","REV_AT_EPOCH":"7111","MEAN_ELEMENT_THEORY":"SGP4","LAUNCH_DATE":"2020-11-25","NORAD_CAT_ID":"47154","REF_FRAME":"TEME","FILE":"3346052","MEAN_MOTION_DDOT":"0.0000000000000","TLE_LINE2":"2 47154  53.0553  29.9699 0001725  64.6310 295.4857 15.06406911 71116","EPHEMERIS_TYPE":"0","RA_OF_ASC_NODE":"29.9699","EPOCH":"2022-03-05T07:23:05.648928","MEAN_ANOMALY":"295.4857","INCLINATION":"53.0553","GP_ID":"197982129","COUNTRY_CODE":"US","APOAPSIS":"548.387","CLASSIFICATION_TYPE":"U","ARG_OF_PERICENTER":"64.6310","MEAN_MOTION":"15.06406911","DECAY_DATE":null,"PERIAPSIS":"545.998","OBJECT_NAME":"STARLINK-1868","RCS_SIZE":"LARGE","MEAN_MOTION_DOT":"0.00000612"},{"BSTAR":"0.00000663850000","REV_AT_EPOCH":"7088","MEAN_ELEMENT_THEORY":"SGP4","TIME_SYSTEM":"UTC","CENTER_NAME":"EARTH","ECCENTRICITY":"0.00021270","OBJECT_ID":"2020-088AK","TLE_LINE1":"1 47155U 20088AK  22064.67445301 -.00000183  00000-0  66385-5 0  9990","ELEMENT_SET_NO":"999","OBJECT_TYPE":"PAYLOAD","PERIOD":"95.592","SEMIMAJOR_AXIS":"6925.325","SITE":"AFETR","MEAN_MOTION_DOT":"-0.00000183","RCS_SIZE":"LARGE","OBJECT_NAME":"STARLINK-1869","PERIAPSIS":"545.717","DECAY_DATE":null,"MEAN_MOTION":"15.06407805","ARG_OF_PERICENTER":"49.1878","CLASSIFICATION_TYPE":"U","GP_ID":"198018573","APOAPSIS":"548.663","COUNTRY_CODE":"US","INCLINATION":"53.0563","MEAN_ANOMALY":"310.9295","EPOCH":"2022-03-05T16:11:12.740064","TLE_LINE2":"2 47155  53.0563  48.3171 0002127  49.1878 310.9295 15.06407805 70887","RA_OF_ASC_NODE":"48.3171","EPHEMERIS_TYPE":"0","MEAN_MOTION_DDOT":"0.0000000000000","FILE":"3346512","REF_FRAME":"TEME","LAUNCH_DATE":"2020-11-25","NORAD_CAT_ID":"47155"},{"NORAD_CAT_ID":"47156","LAUNCH_DATE":"2020-11-25","REF_FRAME":"TEME","FILE":"3346512","MEAN_MOTION_DDOT":"0.0000000000000","RA_OF_ASC_NODE":"275.4600","TLE_LINE2":"2 47156  53.0504 275.4600 0008085 271.6197  88.3900 15.85088322 72773","EPHEMERIS_TYPE":"0","EPOCH":"2022-03-05T19:53:29.801760","MEAN_ANOMALY":"88.3900","INCLINATION":"53.0504","APOAPSIS":"321.490","GP_ID":"198018824","COUNTRY_CODE":"US","CLASSIFICATION_TYPE":"U","ARG_OF_PERICENTER":"271.6197","MEAN_MOTION":"15.85088322","DECAY_DATE":null,"PERIAPSIS":"310.666","OBJECT_NAME":"STARLINK-1870","RCS_SIZE":"LARGE","MEAN_MOTION_DOT":"0.00165145","SEMIMAJOR_AXIS":"6694.213","SITE":"AFETR","PERIOD":"90.847","OBJECT_TYPE":"PAYLOAD","ELEMENT_SET_NO":"999","TLE_LINE1":"1 47156U 20088AL  22064.82881715  .00165145  00000-0  67476-3 0  9990","OBJECT_ID":"2020-088AL","ECCENTRICITY":"0.00080850","TIME_SYSTEM":"UTC","CENTER_NAME":"EARTH","BSTAR":"0.00067476000000","MEAN_ELEMENT_THEORY":"SGP4","REV_AT_EPOCH":"7277"},{"OBJECT_ID":"2020-088AM","ECCENTRICITY":"0.00021300","BSTAR":"-0.00000318100000","REV_AT_EPOCH":"7102","MEAN_ELEMENT_THEORY":"SGP4","TIME_SYSTEM":"UTC","CENTER_NAME":"EARTH","OBJECT_TYPE":"PAYLOAD","PERIOD":"95.592","SEMIMAJOR_AXIS":"6925.358","SITE":"AFETR","TLE_LINE1":"1 47157U 20088AM  22064.64589654 -.00000329  00000-0 -31810-5 0  9997","ELEMENT_SET_NO":"999","DECAY_DATE":null,"MEAN_MOTION":"15.06396912","ARG_OF_PERICENTER":"57.4075","CLASSIFICATION_TYPE":"U","APOAPSIS":"548.698","GP_ID":"198017073","COUNTRY_CODE":"US","MEAN_MOTION_DOT":"-0.00000329","RCS_SIZE":"LARGE","OBJECT_NAME":"STARLINK-1871","PERIAPSIS":"545.748","MEAN_MOTION_DDOT":"0.0000000000000","REF_FRAME":"TEME","FILE":"3346512","LAUNCH_DATE":"2020-11-25","NORAD_CAT_ID":"47157","INCLINATION":"53.0546","MEAN_ANOMALY":"302.7119","EPOCH":"2022-03-05T15:30:05.461056","RA_OF_ASC_NODE":"38.4430","TLE_LINE2":"2 47157  53.0546  38.4430 0002130  57.4075 302.7119 15.06396912 71020","EPHEMERIS_TYPE":"0"},{"OBJECT_ID":"2020-088AN","ECCENTRICITY":"0.00018310","BSTAR":"0.00007727800000","REV_AT_EPOCH":"7115","MEAN_ELEMENT_THEORY":"SGP4","CENTER_NAME":"EARTH","TIME_SYSTEM":"UTC","SITE":"AFETR","SEMIMAJOR_AXIS":"6925.319","OBJECT_TYPE":"PAYLOAD","PERIOD":"95.592","ELEMENT_SET_NO":"999","TLE_LINE1":"1 47158U 20088AN  22064.60257744  .00000870  00000-0  77278-4 0  9992","CLASSIFICATION_TYPE":"U","COUNTRY_CODE":"US","GP_ID":"198017323","APOAPSIS":"548.452","DECAY_DATE":null,"MEAN_MOTION":"15.06409706","ARG_OF_PERICENTER":"63.6095","PERIAPSIS":"545.916","RCS_SIZE":"LARGE","MEAN_MOTION_DOT":"0.00000870","OBJECT_NAME":"STARLINK-1873","REF_FRAME":"TEME","FILE":"3346512","NORAD_CAT_ID":"47158","LAUNCH_DATE":"2020-11-25","MEAN_MOTION_DDOT":"0.0000000000000","EPOCH":"2022-03-05T14:27:42.690816","TLE_LINE2":"2 47158  53.0562  28.6386 0001831  63.6095 296.5081 15.06409706 71156","RA_OF_ASC_NODE":"28.6386","EPHEMERIS_TYPE":"0","MEAN_ANOMALY":"296.5081","INCLINATION":"53.0562"},{"CLASSIFICATION_TYPE":"U","GP_ID":"197951580","COUNTRY_CODE":"US","APOAPSIS":"325.074","DECAY_DATE":null,"MEAN_MOTION":"15.82144055","ARG_OF_PERICENTER":"310.5868","PERIAPSIS":"323.687","MEAN_MOTION_DOT":"0.00090769","RCS_SIZE":"LARGE","OBJECT_NAME":"STARLINK-1874","REF_FRAME":"TEME","FILE":"3345704","LAUNCH_DATE":"2020-11-25","NORAD_CAT_ID":"47159","MEAN_MOTION_DDOT":"0.0000000000000","EPOCH":"2022-03-05T12:45:03.570048","TLE_LINE2":"2 47159  53.0529   0.6252 0001035 310.5868  49.5063 15.82144055 71793","RA_OF_ASC_NODE":"0.6252","EPHEMERIS_TYPE":"0","INCLINATION":"53.0529","MEAN_ANOMALY":"49.5063","OBJECT_ID":"2020-088AP","ECCENTRICITY":"0.00010350","MEAN_ELEMENT_THEORY":"SGP4","BSTAR":"0.00043236000000","REV_AT_EPOCH":"7179","TIME_SYSTEM":"UTC","CENTER_NAME":"EARTH","SEMIMAJOR_AXIS":"6702.515","SITE":"AFETR","OBJECT_TYPE":"PAYLOAD","PERIOD":"91.016","ELEMENT_SET_NO":"999","TLE_LINE1":"1 47159U 20088AP  22064.53129132  .00090769  00000-0  43236-3 0  9996"},{"TLE_LINE1":"1 47161U 20088AR  22064.63575686  .00000232  00000-0  34483-4 0  9990","ELEMENT_SET_NO":"999","PERIOD":"95.592","OBJECT_TYPE":"PAYLOAD","SITE":"AFETR","SEMIMAJOR_AXIS":"6925.344","CENTER_NAME":"EARTH","TIME_SYSTEM":"UTC","MEAN_ELEMENT_THEORY":"SGP4","BSTAR":"0.00003448300000","REV_AT_EPOCH":"7116","OBJECT_ID":"2020-088AR","ECCENTRICITY":"0.00017350","INCLINATION":"53.0556","MEAN_ANOMALY":"305.3269","TLE_LINE2":"2 47161  53.0556  28.4937 0001735  54.7882 305.3269 15.06401601 71165","RA_OF_ASC_NODE":"28.4937","EPHEMERIS_TYPE":"0","EPOCH":"2022-03-05T15:15:29.392704","MEAN_MOTION_DDOT":"0.0000000000000","NORAD_CAT_ID":"47161","LAUNCH_DATE":"2020-11-25","FILE":"3346512","REF_FRAME":"TEME","OBJECT_NAME":"STARLINK-1876","RCS_SIZE":"LARGE","MEAN_MOTION_DOT":"0.00000232","PERIAPSIS":"546.007","ARG_OF_PERICENTER":"54.7882","MEAN_MOTION":"15.06401601","DECAY_DATE":null,"COUNTRY_CODE":"US","GP_ID":"198018325","APOAPSIS":"548.410","CLASSIFICATION_TYPE":"U"}];
